ONEWEB-0539             
1 54644U 22166C   23149.13145641  .00000019  00000+0  15162-4 0  9992
2 54644  87.9139 106.0359 0002416  89.0701 271.0710 13.21824702 24682
ONEWEB-0540             
1 54645U 22166D   23149.12513445  .00000123  00000+0  26514-3 0  9991
2 54645  87.9228 106.0469 0002369  86.7393 273.4012 13.21829017 24698
ONEWEB-0542             
1 54646U 22166E   23149.13987256  .00000102  00000+0  21545-3 0  9994
2 54646  87.9152 106.0330 0002126  99.6190 260.5184 13.21827833 24692
ONEWEB-0545             
1 54647U 22166F   23148.87913096  .00000010  00000+0 -65718-5 0  9997
2 54647  87.9227 106.1117 0002619  94.3754 265.7679 13.21825921 24169
ONEWEB-0580             
1 54648U 22166G   23149.15669493  .00000079  00000+0  15932-3 0  9994
2 54648  87.9159 106.0384 0002016 101.1945 258.9416 13.21826937 24700
ONEWEB-0582             
1 54649U 22166H   23148.89384613  .00000047  00000+0  83159-4 0  9995
2 54649  87.9224 106.1035 0002486  84.8032 275.3386 13.21821508 24183
ONEWEB-0583             
1 54650U 22166J   23148.90646731  .00000090  00000+0  18683-3 0  9998
2 54650  87.9225 106.1072 0002197  71.3665 288.7707 13.21825198 24194
ONEWEB-0584             
1 54651U 22166K   23149.15458426 -.00000102  00000+0 -27832-3 0  9991
2 54651  87.9180 106.0346 0002073  94.6325 265.5046 13.21826964 24687
ONEWEB-0585             
1 54652U 22166L   23148.87491264  .00000023  00000+0  23618-4 0  9996
2 54652  87.9156 106.0872 0002262  80.1227 280.0162 13.21828282 24187
ONEWEB-0586             
1 54653U 22166M   23148.88753450  .00000054  00000+0  99560-4 0  9999
2 54653  87.9227 106.1288 0002187  92.2594 267.8790 13.21824389 24180
ONEWEB-0587             
1 54654U 22166N   23148.89022428  .00000045  00000+0  61492-4 0  9998
2 54654  87.9632 106.0620 0006014  71.6250 288.5545 13.35290388 24317
ONEWEB-0589             
1 54655U 22166P   23148.88544829  .00000033  00000+0  47545-4 0  9992
2 54655  87.9227 106.0760 0002108 115.8612 244.2739 13.21827255 24202
ONEWEB-0590             
1 54656U 22166Q   23148.91064638  .00000252  00000+0  57837-3 0  9999
2 54656  87.9164 106.0661 0001986  74.6299 285.5054 13.21830113 24192
ONEWEB-0591             
1 54657U 22166R   23148.84759920  .00000074  00000+0  14794-3 0  9994
2 54657  87.9229 106.0854 0002050  87.9553 272.1815 13.21825998 24217
ONEWEB-0592             
1 54658U 22166S   23148.84970356  .00000050  00000+0  89252-4 0  9999
2 54658  87.9303 106.0492 0001896  91.3310 268.8041 13.21828597 24093
ONEWEB-0593             
1 54659U 22166T   23148.87283256  .00000129  00000+0  28141-3 0  9995
2 54659  87.9224 106.0765 0002064  90.9757 269.1613 13.21824771 24209
ONEWEB-0594             
1 54660U 22166U   23148.89175426  .00000052  00000+0  93838-4 0  9999
2 54660  87.9298 106.0329 0002375  81.6489 278.4914 13.21826902 24229
ONEWEB-0595             
1 54661U 22166V   23148.86861307  .00000029  00000+0  37696-4 0  9991
2 54661  87.9150 106.0926 0002161  77.3195 282.8181 13.21827795 24191
ONEWEB-0596             
1 54662U 22166W   23149.14617429  .00000080  00000+0  16280-3 0  9990
2 54662  87.9180 106.0318 0001861  94.1628 265.9718 13.21824003 24708
ONEWEB-0597             
1 54663U 22166X   23148.90017005  .00000056  00000+0  10464-3 0  9999
2 54663  87.9171 106.0834 0002274  94.1805 265.9589 13.21825814 24200
ONEWEB-0600             
1 54664U 22166Y   23148.88123949  .00000026  00000+0  30400-4 0  9992
2 54664  87.9228 106.1143 0002260  89.5460 270.5933 13.21824500 24170
ONEWEB-0601             
1 54665U 22166Z   23147.85307654 -.00033307  00000+0 -66368-1 0  9995
2 54665  88.0601 106.2586 0002636  62.0310 298.1098 13.35049447 24203
ONEWEB-0602             
1 54666U 22166AA  23148.91699022  .00000055  00000+0  10138-3 0  9995
2 54666  87.9326 106.0366 0002042  91.6701 268.4667 13.21827566 24217
ONEWEB-0603             
1 54667U 22166AB  23148.84547206  .00000009  00000+0 -94374-5 0  9990
2 54667  87.9162 106.0986 0002253 101.0293 259.1094 13.21829461 24138
ONEWEB-0604             
1 54668U 22166AC  23148.90856095  .00000074  00000+0  14667-3 0  9993
2 54668  87.9329 106.0351 0002498  99.0046 261.1371 13.21828505 24109
ONEWEB-0605             
1 54669U 22166AD  23148.90224168  .00000078  00000+0  15725-3 0  9994
2 54669  87.9183 106.1277 0001749  98.9079 261.2253 13.21829539 24173
ONEWEB-0606             
1 54670U 22166AE  23148.85212165  .00000030  00000+0  32959-4 0  9991
2 54670  87.9699 106.0632 0002643  93.8962 266.2482 13.35237646 24198
ONEWEB-0607             
1 54671U 22166AF  23148.88963094  .00000052  00000+0  95540-4 0  9998
2 54671  87.9314 106.0329 0002163  92.5282 267.6099 13.21827352 24209
ONEWEB-0608             
1 54672U 22166AG  23148.89595666  .00000092  00000+0  19220-3 0  9990
2 54672  87.9168 106.1161 0001968 105.7379 254.3973 13.21824555 24215
ONEWEB-0610             
1 54673U 22166AH  23148.87703022  .00000008  00000+0 -11975-4 0  9994
2 54673  87.9154 106.1238 0001973 102.9954 257.1401 13.21824409 24114
ONEWEB-0611             
1 54674U 22166AJ  23148.87070227  .00000040  00000+0  64298-4 0  9990
2 54674  87.9179 106.0809 0002443  71.4353 288.7046 13.21827880 24101
