OBJECT_NAME,OBJECT_ID,EPOCH,MEAN_MOTION,ECCENTRICITY,INCLINATION,RA_OF_ASC_NODE,ARG_OF_PERICENTER,MEAN_ANOMALY,EPHEMERIS_TYPE,CLASSIFICATION_TYPE,NORAD_CAT_ID,ELEMENT_SET_NO,REV_AT_EPOCH,BSTAR,MEAN_MOTION_DOT,MEAN_MOTION_DDOT
ONEWEB-0539,2022-166C,2023-05-29T03:09:17.833824,13.21824702,.0002416,87.9139,106.0359,89.0701,271.0710,0,U,54644,999,2468,.15162E-4,.19E-6,0
ONEWEB-0540,2022-166D,2023-05-29T03:00:11.616480,13.21829017,.0002369,87.9228,106.0469,86.7393,273.4012,0,U,54645,999,2469,.26514E-3,.123E-5,0
ONEWEB-0542,2022-166E,2023-05-29T03:21:24.989184,13.21827833,.0002126,87.9152,106.0330,99.6190,260.5184,0,U,54646,999,2469,.21545E-3,.102E-5,0
ONEWEB-0545,2022-166F,2023-05-28T21:05:56.914944,13.21825921,.0002619,87.9227,106.1117,94.3754,265.7679,0,U,54647,999,2416,-.65718E-5,.1E-6,0
ONEWEB-0580,2022-166G,2023-05-29T03:45:38.441952,13.21826937,.0002016,87.9159,106.0384,101.1945,258.9416,0,U,54648,999,2470,.15932E-3,.79E-6,0
ONEWEB-0582,2022-166H,2023-05-28T21:27:08.305632,13.21821508,.0002486,87.9224,106.1035,84.8032,275.3386,0,U,54649,999,2418,.83159E-4,.47E-6,0
ONEWEB-0583,2022-166J,2023-05-28T21:45:18.775584,13.21825198,.0002197,87.9225,106.1072,71.3665,288.7707,0,U,54650,999,2419,.18683E-3,.9E-6,0
ONEWEB-0584,2022-166K,2023-05-29T03:42:36.080064,13.21826964,.0002073,87.9180,106.0346,94.6325,265.5046,0,U,54651,999,2468,-.27832E-3,-.102E-5,0
ONEWEB-0585,2022-166L,2023-05-28T20:59:52.452096,13.21828282,.0002262,87.9156,106.0872,80.1227,280.0162,0,U,54652,999,2418,.23618E-4,.23E-6,0
ONEWEB-0586,2022-166M,2023-05-28T21:18:02.980800,13.21824389,.0002187,87.9227,106.1288,92.2594,267.8790,0,U,54653,999,2418,.9956E-4,.54E-6,0
ONEWEB-0587,2022-166N,2023-05-28T21:21:55.377792,13.35290388,.0006014,87.9632,106.0620,71.6250,288.5545,0,U,54654,999,2431,.61492E-4,.45E-6,0
ONEWEB-0589,2022-166P,2023-05-28T21:15:02.732256,13.21827255,.0002108,87.9227,106.0760,115.8612,244.2739,0,U,54655,999,2420,.47545E-4,.33E-6,0
ONEWEB-0590,2022-166Q,2023-05-28T21:51:19.847232,13.21830113,.0001986,87.9164,106.0661,74.6299,285.5054,0,U,54656,999,2419,.57837E-3,.252E-5,0
ONEWEB-0591,2022-166R,2023-05-28T20:20:32.570880,13.21825998,.000205,87.9229,106.0854,87.9553,272.1815,0,U,54657,999,2421,.14794E-3,.74E-6,0
ONEWEB-0592,2022-166S,2023-05-28T20:23:34.387584,13.21828597,.0001896,87.9303,106.0492,91.3310,268.8041,0,U,54658,999,2409,.89252E-4,.5E-6,0
ONEWEB-0593,2022-166T,2023-05-28T20:56:52.733184,13.21824771,.0002064,87.9224,106.0765,90.9757,269.1613,0,U,54659,999,2420,.28141E-3,.129E-5,0
ONEWEB-0594,2022-166U,2023-05-28T21:24:07.568064,13.21826902,.0002375,87.9298,106.0329,81.6489,278.4914,0,U,54660,999,2422,.93838E-4,.52E-6,0
ONEWEB-0595,2022-166V,2023-05-28T20:50:48.169248,13.21827795,.0002161,87.9150,106.0926,77.3195,282.8181,0,U,54661,999,2419,.37696E-4,.29E-6,0
ONEWEB-0596,2022-166W,2023-05-29T03:30:29.458656,13.21824003,.0001861,87.9180,106.0318,94.1628,265.9718,0,U,54662,999,2470,.1628E-3,.8E-6,0
ONEWEB-0597,2022-166X,2023-05-28T21:36:14.692320,13.21825814,.0002274,87.9171,106.0834,94.1805,265.9589,0,U,54663,999,2420,.10464E-3,.56E-6,0
ONEWEB-0600,2022-166Y,2023-05-28T21:08:59.091936,13.21824500,.000226,87.9228,106.1143,89.5460,270.5933,0,U,54664,999,2417,.304E-4,.26E-6,0
ONEWEB-0601,2022-166Z,2023-05-27T20:28:25.813056,13.35049447,.0002636,88.0601,106.2586,62.0310,298.1098,0,U,54665,999,2420,-.66368E-1,-.33307E-3,0
ONEWEB-0602,2022-166AA,2023-05-28T22:00:27.955008,13.21827566,.0002042,87.9326,106.0366,91.6701,268.4667,0,U,54666,999,2421,.10138E-3,.55E-6,0
ONEWEB-0603,2022-166AB,2023-05-28T20:17:28.785984,13.21829461,.0002253,87.9162,106.0986,101.0293,259.1094,0,U,54667,999,2413,-.94374E-5,.9E-7,0
ONEWEB-0604,2022-166AC,2023-05-28T21:48:19.666080,13.21828505,.0002498,87.9329,106.0351,99.0046,261.1371,0,U,54668,999,2410,.14667E-3,.74E-6,0
ONEWEB-0605,2022-166AD,2023-05-28T21:39:13.681152,13.21829539,.0001749,87.9183,106.1277,98.9079,261.2253,0,U,54669,999,2417,.15725E-3,.78E-6,0
ONEWEB-0606,2022-166AE,2023-05-28T20:27:03.310560,13.35237646,.0002643,87.9699,106.0632,93.8962,266.2482,0,U,54670,999,2419,.32959E-4,.3E-6,0
ONEWEB-0607,2022-166AF,2023-05-28T21:21:04.113216,13.21827352,.0002163,87.9314,106.0329,92.5282,267.6099,0,U,54671,999,2420,.9554E-4,.52E-6,0
ONEWEB-0608,2022-166AG,2023-05-28T21:30:10.655424,13.21824555,.0001968,87.9168,106.1161,105.7379,254.3973,0,U,54672,999,2421,.1922E-3,.92E-6,0
ONEWEB-0610,2022-166AH,2023-05-28T21:02:55.411008,13.21824409,.0001973,87.9154,106.1238,102.9954,257.1401,0,U,54673,999,2411,-.11975E-4,.8E-7,0
ONEWEB-0611,2022-166AJ,2023-05-28T20:53:48.676128,13.21827880,.0002443,87.9179,106.0809,71.4353,288.7046,0,U,54674,999,2410,.64298E-4,.4E-6,0
